{
    "links": {
        "self": "http://www.neowsapp.com/rest/v1/neo/3578981?api_key=iIulBulltgU6a56xZRHN4H3l9WmuAYTsLGpBGhQ2"
    },
    "id": "3578981",
    "neo_reference_id": "3578981",
    "name": "(2011 SQ32)",
    "designation": "2011 SQ32",
    "nasa_jpl_url": "http://ssd.jpl.nasa.gov/sbdb.cgi?sstr=3578981",
    "absolute_magnitude_h": 25.0,
    "estimated_diameter": {
        "kilometers": {
            "estimated_diameter_min": 0.02658,
            "estimated_diameter_max": 0.0594346868
        },
        "meters": {
            "estimated_diameter_min": 26.58,
            "estimated_diameter_max": 59.4346868419
        },
        "miles": {
            "estimated_diameter_min": 0.0165160412,
            "estimated_diameter_max": 0.0369309908
        },
        "feet": {
            "estimated_diameter_min": 87.2047272,
            "estimated_diameter_max": 194.9956979785
        }
    },
    "is_potentially_hazardous_asteroid": false,
    "close_approach_data": [
        {
            "close_approach_date": "2007-10-31",
            "close_approach_date_full": "2007-Oct-31 00:11",
            "epoch_date_close_approach": 1193789460000,
            "relative_velocity": {
                "kilometers_per_second": "19.2408287298",
                "kilometers_per_hour": "69266.9834273084",
                "miles_per_hour": "43039.8097857073"
            },
            "miss_distance": {
                "astronomical": "0.3676981369",
                "lunar": "143.0345752541",
                "kilometers": "55006858.083208403",
                "miles": "34179676.6802378414"
            },
            "orbiting_body": "Earth"
        },
        {
            "close_approach_date": "2011-09-20",
            "close_approach_date_full": "2011-Sep-20 05:23",
            "epoch_date_close_approach": 1316496180000,
            "relative_velocity": {
                "kilometers_per_second": "8.1155636376",
                "kilometers_per_hour": "29216.0290952138",
                "miles_per_hour": "18153.7043008566"
            },
            "miss_distance": {
                "astronomical": "0.0191907813",
                "lunar": "7.4652139257",
                "kilometers": "2870900.006115831",
                "miles": "1783894.5435112278"
            },
            "orbiting_body": "Earth"
        },
        {
            "close_approach_date": "2015-07-24",
            "close_approach_date_full": "2015-Jul-24 03:45",
            "epoch_date_close_approach": 1437709500000,
            "relative_velocity": {
                "kilometers_per_second": "14.7830125426",
                "kilometers_per_hour": "53218.8451532452",
                "miles_per_hour": "33068.1207564706"
            },
            "miss_distance": {
                "astronomical": "0.2213173317",
                "lunar": "86.0924420313",
                "kilometers": "33108601.416403479",
                "miles": "20572730.9499428502"
            },
            "orbiting_body": "Earth"
        },
        {
            "close_approach_date": "2122-10-17",
            "close_approach_date_full": "2122-Oct-17 08:41",
            "epoch_date_close_approach": 4821669660000,
            "relative_velocity": {
                "kilometers_per_second": "14.0148567496",
                "kilometers_per_hour": "50453.4842984401",
                "miles_per_hour": "31349.8330631058"
            },
            "miss_distance": {
                "astronomical": "0.2480391702",
                "lunar": "96.4872372078",
                "kilometers": "37106131.538487474",
                "miles": "23056680.9855121812"
            },
            "orbiting_body": "Earth"
        }
    ],
    "orbital_data": {
        "orbit_id": "9",
        "orbit_determination_date": "2017-04-06 08:52:43",
        "first_observation_date": "2011-09-23",
        "last_observation_date": "2011-10-31",
        "data_arc_in_days": 38,
        "observations_used": 41,
        "orbit_uncertainty": "7",
        "minimum_orbit_intersection": ".0195599",
        "jupiter_tisserand_invariant": "3.199",
        "epoch_osculation": "2459000.5",
        "eccentricity": ".5912323119200312",
        "semi_major_axis": "2.499714838674899",
        "inclination": "1.598759401313496",
        "ascending_node_longitude": "12.32332587240682",
        "orbital_period": "1443.557638943755",
        "perihelion_distance": "1.021802655464331",
        "perihelion_argument": "334.0586549676661",
        "aphelion_distance": "3.977627021885468",
        "perihelion_time": "2458698.910134302822",
        "mean_anomaly": "75.21164983091779",
        "mean_motion": ".249383876533957",
        "equinox": "J2000",
        "orbit_class": {
            "orbit_class_type": "AMO",
            "orbit_class_description": "Near-Earth asteroid orbits similar to that of 1221 Amor",
            "orbit_class_range": "1.017 AU < q (perihelion) < 1.3 AU"
        }
    },
    "is_sentry_object": false
}